STARLINK-37468          
1 68857U 26094U   26143.50004630 -.02434923  00000+0 -43559-1 0  9994
2 68857  97.2847 158.2713 0001684 112.2005 235.2104 15.53799416  5406
STARLINK-37441          
1 68858U 26094V   26143.50004630 -.02145192  00000+0 -40926-1 0  9997
2 68858  97.2850 158.2506 0001362  95.2289 209.1111 15.51545509  5406
STARLINK-37488          
1 68859U 26094W   26143.50004630  .00109497  00000+0  19904-2 0  9995
2 68859  97.2858 158.2249 0000805 125.0956 122.5319 15.49140915  5400
STARLINK-37388          
1 68860U 26094X   26143.50004630  .00078516  00000+0  14328-2 0  9999
2 68860  97.2855 158.1550 0001166  99.4717 348.1274 15.49151810  5405
STARLINK-37479          
1 68861U 26094Y   26143.50004630 -.02094622  00000+0 -38415-1 0  9992
2 68861  97.2853 158.2661 0001705 112.8766 225.7769 15.52553695  5401
STARLINK-37453          
1 68862U 26094Z   26143.50004630  .00088325  00000+0  16100-2 0  9990
2 68862  97.2854 158.2150 0001047  83.6156 144.6028 15.49145500  5408
STARLINK-37430          
1 68863U 26094AA  26143.50004630  .00085523  00000+0  15593-2 0  9993
2 68863  97.2851 158.2050 0000848 113.7290  88.9557 15.49149311  5408
KUIPER-00299            
1 68864U 26095A   26143.50004630  .00054571  00000+0  20273-2 0  9995
2 68864  51.8778   2.3768 0009227 214.1429  93.8648 15.26985254  4648
KUIPER-00353            
1 68865U 26095B   26143.30189912  .00024634  00000+0  64008-3 0  9993
2 68865  51.8848   2.5026 0000899 163.2423 196.8595 15.38803957  3905
KUIPER-00357            
1 68866U 26095C   26143.30973006  .00022511  00000+0  59442-3 0  9997
2 68866  51.8831   2.5566 0003144 178.2582 181.8416 15.38360419  3902
KUIPER-00364            
1 68867U 26095D   26143.31329777  .00021901  00000+0  58283-3 0  9993
2 68867  51.8825   2.5783 0003401 188.7029 171.3900 15.38136100  3905
KUIPER-00375            
1 68868U 26095E   26143.30365977  .00030209  00000+0  78476-3 0  9992
2 68868  51.8838   2.5186 0001346 176.7918 183.3079 15.38697389  3908
