CCSDS_OMM_VERS = 2.0
CREATION_DATE  = 
ORIGINATOR     = 

OBJECT_NAME    = STARLINK-37468
OBJECT_ID      = 2026-094U
CENTER_NAME    = EARTH
REF_FRAME      = TEME
TIME_SYSTEM    = UTC
MEAN_ELEMENT_THEORY = SGP/SGP4

EPOCH          = 2026-05-23T12:00:04.000320
MEAN_MOTION    = 15.53799416
ECCENTRICITY   = .0001684
INCLINATION    = 97.2847
RA_OF_ASC_NODE = 158.2713
ARG_OF_PERICENTER = 112.2005
MEAN_ANOMALY   = 235.2104

EPHEMERIS_TYPE = 0
CLASSIFICATION_TYPE = U
NORAD_CAT_ID   = 68857
ELEMENT_SET_NO = 999
REV_AT_EPOCH   = 540
BSTAR          = -.43559E-1
MEAN_MOTION_DOT = -.2434923E-1
MEAN_MOTION_DDOT = 0

CCSDS_OMM_VERS = 2.0
CREATION_DATE  = 
ORIGINATOR     = 

OBJECT_NAME    = STARLINK-37441
OBJECT_ID      = 2026-094V
CENTER_NAME    = EARTH
REF_FRAME      = TEME
TIME_SYSTEM    = UTC
MEAN_ELEMENT_THEORY = SGP/SGP4

EPOCH          = 2026-05-23T12:00:04.000320
MEAN_MOTION    = 15.51545509
ECCENTRICITY   = .0001362
INCLINATION    = 97.2850
RA_OF_ASC_NODE = 158.2506
ARG_OF_PERICENTER = 95.2289
MEAN_ANOMALY   = 209.1111

EPHEMERIS_TYPE = 0
CLASSIFICATION_TYPE = U
NORAD_CAT_ID   = 68858
ELEMENT_SET_NO = 999
REV_AT_EPOCH   = 540
BSTAR          = -.40926E-1
MEAN_MOTION_DOT = -.2145192E-1
MEAN_MOTION_DDOT = 0

CCSDS_OMM_VERS = 2.0
CREATION_DATE  = 
ORIGINATOR     = 

OBJECT_NAME    = STARLINK-37488
OBJECT_ID      = 2026-094W
CENTER_NAME    = EARTH
REF_FRAME      = TEME
TIME_SYSTEM    = UTC
MEAN_ELEMENT_THEORY = SGP/SGP4

EPOCH          = 2026-05-23T12:00:04.000320
MEAN_MOTION    = 15.49140915
ECCENTRICITY   = .0000805
INCLINATION    = 97.2858
RA_OF_ASC_NODE = 158.2249
ARG_OF_PERICENTER = 125.0956
MEAN_ANOMALY   = 122.5319

EPHEMERIS_TYPE = 0
CLASSIFICATION_TYPE = U
NORAD_CAT_ID   = 68859
ELEMENT_SET_NO = 999
REV_AT_EPOCH   = 540
BSTAR          = .19904E-2
MEAN_MOTION_DOT = .109497E-2
MEAN_MOTION_DDOT = 0

CCSDS_OMM_VERS = 2.0
CREATION_DATE  = 
ORIGINATOR     = 

OBJECT_NAME    = STARLINK-37388
OBJECT_ID      = 2026-094X
CENTER_NAME    = EARTH
REF_FRAME      = TEME
TIME_SYSTEM    = UTC
MEAN_ELEMENT_THEORY = SGP/SGP4

EPOCH          = 2026-05-23T12:00:04.000320
MEAN_MOTION    = 15.49151810
ECCENTRICITY   = .0001166
INCLINATION    = 97.2855
RA_OF_ASC_NODE = 158.1550
ARG_OF_PERICENTER = 99.4717
MEAN_ANOMALY   = 348.1274

EPHEMERIS_TYPE = 0
CLASSIFICATION_TYPE = U
NORAD_CAT_ID   = 68860
ELEMENT_SET_NO = 999
REV_AT_EPOCH   = 540
BSTAR          = .14328E-2
MEAN_MOTION_DOT = .78516E-3
MEAN_MOTION_DDOT = 0

CCSDS_OMM_VERS = 2.0
CREATION_DATE  = 
ORIGINATOR     = 

OBJECT_NAME    = STARLINK-37479
OBJECT_ID      = 2026-094Y
CENTER_NAME    = EARTH
REF_FRAME      = TEME
TIME_SYSTEM    = UTC
MEAN_ELEMENT_THEORY = SGP/SGP4

EPOCH          = 2026-05-23T12:00:04.000320
MEAN_MOTION    = 15.52553695
ECCENTRICITY   = .0001705
INCLINATION    = 97.2853
RA_OF_ASC_NODE = 158.2661
ARG_OF_PERICENTER = 112.8766
MEAN_ANOMALY   = 225.7769

EPHEMERIS_TYPE = 0
CLASSIFICATION_TYPE = U
NORAD_CAT_ID   = 68861
ELEMENT_SET_NO = 999
REV_AT_EPOCH   = 540
BSTAR          = -.38415E-1
MEAN_MOTION_DOT = -.2094622E-1
MEAN_MOTION_DDOT = 0

CCSDS_OMM_VERS = 2.0
CREATION_DATE  = 
ORIGINATOR     = 

OBJECT_NAME    = STARLINK-37453
OBJECT_ID      = 2026-094Z
CENTER_NAME    = EARTH
REF_FRAME      = TEME
TIME_SYSTEM    = UTC
MEAN_ELEMENT_THEORY = SGP/SGP4

EPOCH          = 2026-05-23T12:00:04.000320
MEAN_MOTION    = 15.49145500
ECCENTRICITY   = .0001047
INCLINATION    = 97.2854
RA_OF_ASC_NODE = 158.2150
ARG_OF_PERICENTER = 83.6156
MEAN_ANOMALY   = 144.6028

EPHEMERIS_TYPE = 0
CLASSIFICATION_TYPE = U
NORAD_CAT_ID   = 68862
ELEMENT_SET_NO = 999
REV_AT_EPOCH   = 540
BSTAR          = .161E-2
MEAN_MOTION_DOT = .88325E-3
MEAN_MOTION_DDOT = 0

CCSDS_OMM_VERS = 2.0
CREATION_DATE  = 
ORIGINATOR     = 

OBJECT_NAME    = STARLINK-37430
OBJECT_ID      = 2026-094AA
CENTER_NAME    = EARTH
REF_FRAME      = TEME
TIME_SYSTEM    = UTC
MEAN_ELEMENT_THEORY = SGP/SGP4

EPOCH          = 2026-05-23T12:00:04.000320
MEAN_MOTION    = 15.49149311
ECCENTRICITY   = .0000848
INCLINATION    = 97.2851
RA_OF_ASC_NODE = 158.2050
ARG_OF_PERICENTER = 113.7290
MEAN_ANOMALY   = 88.9557

EPHEMERIS_TYPE = 0
CLASSIFICATION_TYPE = U
NORAD_CAT_ID   = 68863
ELEMENT_SET_NO = 999
REV_AT_EPOCH   = 540
BSTAR          = .15593E-2
MEAN_MOTION_DOT = .85523E-3
MEAN_MOTION_DDOT = 0

CCSDS_OMM_VERS = 2.0
CREATION_DATE  = 
ORIGINATOR     = 

OBJECT_NAME    = KUIPER-00299
OBJECT_ID      = 2026-095A
CENTER_NAME    = EARTH
REF_FRAME      = TEME
TIME_SYSTEM    = UTC
MEAN_ELEMENT_THEORY = SGP/SGP4

EPOCH          = 2026-05-23T12:00:04.000320
MEAN_MOTION    = 15.26985254
ECCENTRICITY   = .0009227
INCLINATION    = 51.8778
RA_OF_ASC_NODE = 2.3768
ARG_OF_PERICENTER = 214.1429
MEAN_ANOMALY   = 93.8648

EPHEMERIS_TYPE = 0
CLASSIFICATION_TYPE = U
NORAD_CAT_ID   = 68864
ELEMENT_SET_NO = 999
REV_AT_EPOCH   = 464
BSTAR          = .20273E-2
MEAN_MOTION_DOT = .54571E-3
MEAN_MOTION_DDOT = 0

CCSDS_OMM_VERS = 2.0
CREATION_DATE  = 
ORIGINATOR     = 

OBJECT_NAME    = KUIPER-00353
OBJECT_ID      = 2026-095B
CENTER_NAME    = EARTH
REF_FRAME      = TEME
TIME_SYSTEM    = UTC
MEAN_ELEMENT_THEORY = SGP/SGP4

EPOCH          = 2026-05-23T07:14:44.083968
MEAN_MOTION    = 15.38803957
ECCENTRICITY   = .0000899
INCLINATION    = 51.8848
RA_OF_ASC_NODE = 2.5026
ARG_OF_PERICENTER = 163.2423
MEAN_ANOMALY   = 196.8595

EPHEMERIS_TYPE = 0
CLASSIFICATION_TYPE = U
NORAD_CAT_ID   = 68865
ELEMENT_SET_NO = 999
REV_AT_EPOCH   = 390
BSTAR          = .64008E-3
MEAN_MOTION_DOT = .24634E-3
MEAN_MOTION_DDOT = 0

CCSDS_OMM_VERS = 2.0
CREATION_DATE  = 
ORIGINATOR     = 

OBJECT_NAME    = KUIPER-00357
OBJECT_ID      = 2026-095C
CENTER_NAME    = EARTH
REF_FRAME      = TEME
TIME_SYSTEM    = UTC
MEAN_ELEMENT_THEORY = SGP/SGP4

EPOCH          = 2026-05-23T07:26:00.677184
MEAN_MOTION    = 15.38360419
ECCENTRICITY   = .0003144
INCLINATION    = 51.8831
RA_OF_ASC_NODE = 2.5566
ARG_OF_PERICENTER = 178.2582
MEAN_ANOMALY   = 181.8416

EPHEMERIS_TYPE = 0
CLASSIFICATION_TYPE = U
NORAD_CAT_ID   = 68866
ELEMENT_SET_NO = 999
REV_AT_EPOCH   = 390
BSTAR          = .59442E-3
MEAN_MOTION_DOT = .22511E-3
MEAN_MOTION_DDOT = 0

CCSDS_OMM_VERS = 2.0
CREATION_DATE  = 
ORIGINATOR     = 

OBJECT_NAME    = KUIPER-00364
OBJECT_ID      = 2026-095D
CENTER_NAME    = EARTH
REF_FRAME      = TEME
TIME_SYSTEM    = UTC
MEAN_ELEMENT_THEORY = SGP/SGP4

EPOCH          = 2026-05-23T07:31:08.927328
MEAN_MOTION    = 15.38136100
ECCENTRICITY   = .0003401
INCLINATION    = 51.8825
RA_OF_ASC_NODE = 2.5783
ARG_OF_PERICENTER = 188.7029
MEAN_ANOMALY   = 171.3900

EPHEMERIS_TYPE = 0
CLASSIFICATION_TYPE = U
NORAD_CAT_ID   = 68867
ELEMENT_SET_NO = 999
REV_AT_EPOCH   = 390
BSTAR          = .58283E-3
MEAN_MOTION_DOT = .21901E-3
MEAN_MOTION_DDOT = 0

CCSDS_OMM_VERS = 2.0
CREATION_DATE  = 
ORIGINATOR     = 

OBJECT_NAME    = KUIPER-00375
OBJECT_ID      = 2026-095E
CENTER_NAME    = EARTH
REF_FRAME      = TEME
TIME_SYSTEM    = UTC
MEAN_ELEMENT_THEORY = SGP/SGP4

EPOCH          = 2026-05-23T07:17:16.204128
MEAN_MOTION    = 15.38697389
ECCENTRICITY   = .0001346
INCLINATION    = 51.8838
RA_OF_ASC_NODE = 2.5186
ARG_OF_PERICENTER = 176.7918
MEAN_ANOMALY   = 183.3079

EPHEMERIS_TYPE = 0
CLASSIFICATION_TYPE = U
NORAD_CAT_ID   = 68868
ELEMENT_SET_NO = 999
REV_AT_EPOCH   = 390
BSTAR          = .78476E-3
MEAN_MOTION_DOT = .30209E-3
MEAN_MOTION_DDOT = 0

